NORAD_CAT_ID,OBJECT_NAME,OBJECT_TYPE,EPOCH,MEAN_MOTION,ECCENTRICITY,INCLINATION,RA_OF_ASC_NODE,ARG_OF_PERICENTER,MEAN_ANOMALY,BSTAR,MEAN_MOTION_DOT,MEAN_MOTION_DDOT,TLE_LINE0,TLE_LINE1,TLE_LINE2,SEMIMAJOR_AXIS,PERIOD,APOGEE,PERIGEE,DECAYED
51879.0,STARLINK-3572,PAYLOAD,2024-02-03 20:10:25,15.08840881,0.0001286,53.2153,192.6624,79.704,280.4097,3.6196e-05,2.88e-06,0.0,0 STARLINK-3572,1 51879U 22022AD  24034.84057827  .00000288  00000-0  36196-4 0  9999,2 51879  53.2153 192.6624 0001286  79.7040 280.4097 15.08840881107781,6917.878,95.437,540.632,538.853,0.0
51879.0,STARLINK-3572,PAYLOAD,2024-02-04 13:39:40,15.08840761,0.0001298,53.2154,189.3917,85.4339,274.6801,7.4795e-05,9.03e-06,0.0,0 STARLINK-3572,1 51879U 22022AD  24035.56921770  .00000903  00000-0  74795-4 0  9997,2 51879  53.2154 189.3917 0001298  85.4339 274.6801 15.08840761107895,6917.878,95.438,540.641,538.845,0.0
51879.0,STARLINK-3572,PAYLOAD,2024-02-04 15:15:03,15.08841704,0.000132,53.2158,189.0943,89.3584,270.7559,7.8458e-05,9.61e-06,0.0,0 STARLINK-3572,1 51879U 22022AD  24035.63545689  .00000961  00000-0  78458-4 0  9990,2 51879  53.2158 189.0943 0001320  89.3584 270.7559 15.08841704107903,6917.875,95.437,540.653,538.827,0.0
51879.0,STARLINK-3572,PAYLOAD,2024-02-05 13:30:27,15.08839501,0.0001306,53.2159,184.9302,89.6334,270.4807,7.2068e-05,8.59e-06,0.0,0 STARLINK-3572,1 51879U 22022AD  24036.56281916  .00000859  00000-0  72068-4 0  9990,2 51879  53.2159 184.9302 0001306  89.6334 270.4807 15.08839501108048,6917.882,95.438,540.65,538.843,0.0
51879.0,STARLINK-3572,PAYLOAD,2024-02-05 15:05:50,15.08840162,0.0001309,53.216,184.6329,88.0284,272.0858,7.6215e-05,9.25e-06,0.0,0 STARLINK-3572,1 51879U 22022AD  24036.62905872  .00000925  00000-0  76215-4 0  9993,2 51879  53.2160 184.6329 0001309  88.0284 272.0858 15.08840162108056,6917.88,95.438,540.65,538.839,0.0
51879.0,STARLINK-3572,PAYLOAD,2024-02-06 13:21:14,15.0883914,0.0001802,53.2189,180.4753,110.4105,249.7081,4.2962e-05,3.96e-06,0.0,0 STARLINK-3572,1 51879U 22022AD  24037.55642083  .00000396  00000-0  42962-4 0  9992,2 51879  53.2189 180.4753 0001802 110.4105 249.7081 15.08839140108190,6917.883,95.438,540.995,538.501,0.0
51879.0,STARLINK-3572,PAYLOAD,2024-02-06 14:56:37,15.08839915,0.0001745,53.2189,180.1786,105.8205,254.298,4.8371e-05,4.82e-06,0.0,0 STARLINK-3572,1 51879U 22022AD  24037.62266051  .00000482  00000-0  48371-4 0  9993,2 51879  53.2189 180.1786 0001745 105.8205 254.2980 15.08839915108209,6917.881,95.438,540.953,538.538,0.0
51879.0,STARLINK-3572,PAYLOAD,2024-02-07 08:25:52,15.08808829,0.000197,53.2191,176.9075,109.8483,250.2722,0.00043906,6.701e-05,0.0,0 STARLINK-3572,1 51879U 22022AD  24038.35130334  .00006701  00000-0  43906-3 0  9996,2 51879  53.2191 176.9075 0001970 109.8483 250.2722 15.08808829108310,6917.976,95.44,541.204,538.478,0.0
51879.0,STARLINK-3572,PAYLOAD,2024-02-07 14:47:25,15.08840543,0.0001613,53.2179,175.7139,99.237,260.8805,-2.2204e-06,-3.23e-06,0.0,0 STARLINK-3572,1 51879U 22022AD  24038.61626381 -.00000323  00000-0 -22204-5 0  9993,2 51879  53.2179 175.7139 0001613  99.2370 260.8805 15.08840543108357,6917.879,95.438,540.86,538.628,0.0
51879.0,STARLINK-3572,PAYLOAD,2024-02-07 16:22:48,15.08841541,0.0001382,53.2162,175.417,93.0686,267.0464,4.1727e-05,3.76e-06,0.0,0 STARLINK-3572,1 51879U 22022AD  24038.68250174  .00000376  00000-0  41727-4 0  9999,2 51879  53.2162 175.4170 0001382  93.0686 267.0464 15.08841541108366,6917.876,95.437,540.697,538.785,0.0
51879.0,STARLINK-3572,PAYLOAD,2024-02-08 14:38:12,15.08840062,0.0001402,53.2157,171.2527,86.9073,273.208,6.1675e-05,6.94e-06,0.0,0 STARLINK-3572,1 51879U 22022AD  24039.60986404  .00000694  00000-0  61675-4 0  9991,2 51879  53.2157 171.2527 0001402  86.9073 273.2080 15.08840062108500,6917.88,95.438,540.715,538.775,0.0
51879.0,STARLINK-3572,PAYLOAD,2024-02-08 16:13:35,15.08843258,0.0001405,53.216,170.9553,82.7673,277.3479,8.9642e-05,1.139e-05,0.0,0 STARLINK-3572,1 51879U 22022AD  24039.67610114  .00001139  00000-0  89642-4 0  9999,2 51879  53.2160 170.9553 0001405  82.7673 277.3479 15.08843258108510,6917.87,95.437,540.707,538.763,0.0
51879.0,STARLINK-3572,PAYLOAD,2024-02-09 14:28:59,15.08837565,0.0001459,53.2166,166.7916,80.2917,279.8239,4.4973e-05,4.28e-06,0.0,0 STARLINK-3572,1 51879U 22022AD  24040.60346817  .00000428  00000-0  44973-4 0  9998,2 51879  53.2166 166.7916 0001459  80.2917 279.8239 15.08837565108655,6917.888,95.438,540.762,538.744,0.0
51879.0,STARLINK-3572,PAYLOAD,2024-02-09 17:39:45,15.08839765,0.0001338,53.2162,166.1968,81.1234,278.9909,6.4557e-05,7.4e-06,0.0,0 STARLINK-3572,1 51879U 22022AD  24040.73594595  .00000740  00000-0  64557-4 0  9997,2 51879  53.2162 166.1968 0001338  81.1234 278.9909 15.08839765108670,6917.881,95.438,540.672,538.82,0.0
51879.0,STARLINK-3572,PAYLOAD,2024-02-10 14:19:46,15.08843808,0.0001804,53.2174,162.3327,78.3697,281.7497,6.6554e-05,7.71e-06,0.0,0 STARLINK-3572,1 51879U 22022AD  24041.59706602  .00000771  00000-0  66554-4 0  9999,2 51879  53.2174 162.3327 0001804  78.3697 281.7497 15.08843808108801,6917.869,95.437,540.982,538.486,0.0
51879.0,STARLINK-3572,PAYLOAD,2024-02-11 10:59:46,15.08844863,0.0001581,53.2168,158.4681,106.5892,253.5274,9.8853e-05,1.286e-05,0.0,0 STARLINK-3572,1 51879U 22022AD  24042.45818175  .00001286  00000-0  98853-4 0  9993,2 51879  53.2168 158.4681 0001581 106.5892 253.5274 15.08844863108932,6917.866,95.437,540.824,538.637,0.0
51879.0,STARLINK-3572,PAYLOAD,2024-02-11 14:10:33,15.08848439,0.0001636,53.2171,157.8739,81.2677,278.85,0.00013441,1.852e-05,0.0,0 STARLINK-3572,1 51879U 22022AD  24042.59066020  .00001852  00000-0  13441-3 0  9990,2 51879  53.2171 157.8739 0001636  81.2677 278.8500 15.08848439108951,6917.855,95.437,540.851,538.588,0.0
51879.0,STARLINK-3572,PAYLOAD,2024-02-11 17:21:18,15.08853795,0.0001496,53.216,157.2735,93.1423,266.974,0.00020029,2.902e-05,0.0,0 STARLINK-3572,1 51879U 22022AD  24042.72313332  .00002902  00000-0  20029-3 0  9993,2 51879  53.2160 157.2735 0001496  93.1423 266.9740 15.08853795108971,6917.838,95.437,540.738,538.668,0.0
51879.0,STARLINK-3572,PAYLOAD,2024-02-12 12:25:56,15.0884843,0.0001601,53.2168,153.7101,96.5003,263.6171,0.0001033,1.357e-05,0.0,0 STARLINK-3572,1 51879U 22022AD  24043.51801896  .00001357  00000-0  10330-3 0  9995,2 51879  53.2168 153.7101 0001601  96.5003 263.6171 15.08848430109092,6917.855,95.437,540.827,538.612,0.0
51879.0,STARLINK-3572,PAYLOAD,2024-02-12 14:01:19,15.08851624,0.0001502,53.2165,153.4112,89.7328,270.3836,0.00010569,1.395e-05,0.0,0 STARLINK-3572,1 51879U 22022AD  24043.58425712  .00001395  00000-0  10569-3 0  9997,2 51879  53.2165 153.4112 0001502  89.7328 270.3836 15.08851624109106,6917.845,95.437,540.749,538.671,0.0
51879.0,STARLINK-3572,PAYLOAD,2024-02-13 12:16:44,15.08836865,0.0001312,53.2152,149.2429,100.0602,260.0538,-0.00012726,-2.312e-05,0.0,0 STARLINK-3572,1 51879U 22022AD  24044.51162535 -.00002312  00000-0 -12726-3 0  9991,2 51879  53.2152 149.2429 0001312 100.0602 260.0538 15.08836865109247,6917.89,95.438,540.663,538.847,0.0
51879.0,STARLINK-3572,PAYLOAD,2024-02-13 13:52:07,15.08838797,0.0001257,53.2163,148.9518,89.6466,270.467,-4.8013e-05,-1.052e-05,0.0,0 STARLINK-3572,1 51879U 22022AD  24044.57786600 -.00001052  00000-0 -48013-4 0  9991,2 51879  53.2163 148.9518 0001257  89.6466 270.4670 15.08838797109251,6917.884,95.438,540.619,538.879,0.0
51879.0,STARLINK-3572,PAYLOAD,2024-02-14 13:42:54,15.08844761,0.000121,53.2159,144.4925,86.0039,274.1092,0.00011762,1.585e-05,0.0,0 STARLINK-3572,1 51879U 22022AD  24045.57146564  .00001585  00000-0  11762-3 0  9990,2 51879  53.2159 144.4925 0001210  86.0039 274.1092 15.08844761109409,6917.866,95.437,540.568,538.894,0.0
51879.0,STARLINK-3572,PAYLOAD,2024-02-15 11:58:19,15.08825626,0.0001733,53.2163,140.3266,100.0022,260.1165,-1.0237e-05,-4.51e-06,0.0,0 STARLINK-3572,1 51879U 22022AD  24046.49883965 -.00000451  00000-0 -10237-4 0  9995,2 51879  53.2163 140.3266 0001733 100.0022 260.1165 15.08825626109546,6917.924,95.438,540.988,538.59,0.0
51879.0,STARLINK-3572,PAYLOAD,2024-02-15 13:33:42,15.0883519,0.000134,53.2159,140.031,92.9749,267.1397,0.00010599,1.399e-05,0.0,0 STARLINK-3572,1 51879U 22022AD  24046.56507548  .00001399  00000-0  10599-3 0  9993,2 51879  53.2159 140.0310 0001340  92.9749 267.1397 15.08835190109559,6917.895,95.438,540.687,538.833,0.0
51879.0,STARLINK-3572,PAYLOAD,2024-02-15 15:09:05,15.08837819,0.0001351,53.2157,139.7337,105.9684,254.1457,0.00013656,1.886e-05,0.0,0 STARLINK-3572,1 51879U 22022AD  24046.63131372  .00001886  00000-0  13656-3 0  9997,2 51879  53.2157 139.7337 0001351 105.9684 254.1457 15.08837819109560,6917.887,95.438,540.687,538.817,0.0
51879.0,STARLINK-3572,PAYLOAD,2024-02-15 23:06:00,15.08852323,0.0001034,53.2133,138.2442,99.0224,261.0885,0.00027495,4.092e-05,0.0,0 STARLINK-3572,1 51879U 22022AD  24046.96250480  .00004092  00000-0  27495-3 0  9993,2 51879  53.2133 138.2442 0001034  99.0224 261.0885 15.08852323109611,6917.843,95.437,540.423,538.992,0.0
51879.0,STARLINK-3572,PAYLOAD,2024-02-16 11:49:05,15.08844863,9.69e-05,53.2145,135.8623,80.6722,279.438,6.0383e-05,6.73e-06,0.0,0 STARLINK-3572,1 51879U 22022AD  24047.49242766  .00000673  00000-0  60383-4 0  9995,2 51879  53.2145 135.8623 0000969  80.6722 279.4380 15.08844863109694,6917.866,95.437,540.401,539.06,0.0
51879.0,STARLINK-3572,PAYLOAD,2024-02-16 13:24:29,15.08827571,0.0001107,53.2143,135.5712,91.4395,268.6724,-0.00012511,-2.278e-05,0.0,0 STARLINK-3572,1 51879U 22022AD  24047.55867586 -.00002278  00000-0 -12511-3 0  9999,2 51879  53.2143 135.5712 0001107  91.4395 268.6724 15.08827571109700,6917.918,95.438,540.549,539.018,0.0
51879.0,STARLINK-3572,PAYLOAD,2024-02-17 13:15:17,15.08835087,0.0001373,53.2156,131.1092,95.8945,264.2204,3.0511e-05,1.98e-06,0.0,0 STARLINK-3572,1 51879U 22022AD  24048.55228120  .00000198  00000-0  30511-4 0  9993,2 51879  53.2156 131.1092 0001373  95.8945 264.2204 15.08835087109853,6917.895,95.438,540.71,538.811,0.0
